      2.10          N: GNSS NAV DATA                        RINEX VERSION / TYPE
fic2rin                                 11/19/2023 00:17:52 PGM / RUN BY / DATE
                                                            END OF HEADER
22 23 11 18  6  0  0.0  .818534754217D-04 -.693489710102D-11  .000000000000D+00
     .500000000000D+02  .447187500000D+02  .432875173846D-08 -.168995863493D+01
     .256672501564D-05  .150188081898D-01  .931695103645D-05  .515373090363D+04
     .540000000000D+06 -.266358256340D-06 -.276089533426D+01  .361353158951D-06
     .963161565580D+00  .204687500000D+03 -.116432214075D+01 -.784961268216D-08
    -.356443418728D-09  .100000000000D+01  .228800000000D+04  .000000000000D+00
     .240000000000D+01  .000000000000D+00 -.111758708954D-07  .500000000000D+02
     .532800000000D+06  .400000000000D+01
20 23 11 18  6  0  0.0  .401063822210D-03 -.193267624127D-11  .000000000000D+00
     .370000000000D+02 -.106687500000D+03  .468769526132D-08  .267217404579D+01
    -.563636422157D-05  .410610379186D-02  .505521893501D-05  .515365981865D+04
     .540000000000D+06 -.100582838058D-06  .117684640918D+00 -.558793544769D-07
     .951386477980D+00  .277156250000D+03 -.276785657581D+01 -.819819863074D-08
    -.145006040084D-09  .100000000000D+01  .228800000000D+04  .000000000000D+00
     .240000000000D+01  .000000000000D+00 -.838190317154D-08  .370000000000D+02
     .532800000000D+06  .400000000000D+01
18 23 11 18  6  0  0.0 -.482292845845D-03 -.108002495836D-10  .000000000000D+00
     .104000000000D+03  .292812500000D+02  .452340270359D-08  .195435691182D+01
     .156089663506D-05  .383062881883D-02  .159069895744D-05  .515364856148D+04
     .540000000000D+06 -.149011611938D-07 -.738379108819D+00  .931322574615D-07
     .974375265681D+00  .357781250000D+03 -.304386070847D+01 -.836177687300D-08
     .671456540289D-10  .100000000000D+01  .228800000000D+04  .000000000000D+00
     .240000000000D+01  .000000000000D+00 -.838190317154D-08  .104000000000D+03
     .532800000000D+06  .400000000000D+01
27 23 11 18  6  0  0.0 -.714850611985D-04 -.522959453519D-11  .000000000000D+00
     .103000000000D+03  .110968750000D+03  .422589031101D-08 -.217512496630D+01
     .548548996449D-05  .118269772502D-01  .813789665699D-05  .515367405319D+04
     .540000000000D+06  .800937414169D-07 -.180986520264D+01 -.113621354103D-06
     .964927954311D+00  .223562500000D+03  .740594888430D+00 -.777032366517D-08
     .113219001740D-09  .100000000000D+01  .228800000000D+04  .000000000000D+00
     .240000000000D+01  .000000000000D+00  .139698386192D-08  .103000000000D+03
     .532800000000D+06  .400000000000D+01
29 23 11 18  6  0  0.0 -.610193703324D-03  .113686837722D-12  .000000000000D+00
     .710000000000D+02  .125281250000D+03  .409659921123D-08 -.235388804623D+01
     .657327473164D-05  .251064694021D-02  .716373324394D-05  .515369249344D+04
     .540000000000D+06 -.298023223877D-07 -.172838914031D+01  .931322574615D-08
     .973957658160D+00  .252875000000D+03  .257264169909D+01 -.785032699763D-08
     .635740766869D-10  .100000000000D+01  .228800000000D+04  .000000000000D+00
     .240000000000D+01  .000000000000D+00 -.977888703346D-08  .710000000000D+02
     .532800000000D+06  .400000000000D+01
26 23 11 18  6  0  0.0  .215856358409D-03 -.272848410532D-11  .000000000000D+00
     .600000000000D+02  .204687500000D+02  .521057418419D-08 -.473066262366D+00
     .115483999252D-05  .855050946120D-02  .798702239990D-05  .515377917862D+04
     .540000000000D+06  .150874257088D-06 -.292547528005D+01  .596046447754D-07
     .932883532538D+00  .208468750000D+03  .494383863655D+00 -.833463288520D-08
    -.380015829185D-09  .100000000000D+01  .228800000000D+04  .000000000000D+00
     .240000000000D+01  .000000000000D+00  .698491930962D-08  .600000000000D+02
     .532800000000D+06  .400000000000D+01
17 23 11 18  6  0  0.0  .723128207028D-03 -.341060513165D-12  .000000000000D+00
     .670000000000D+02  .105500000000D+03  .407588406265D-08 -.223503940090D+01
     .573694705963D-05  .138438148424D-01  .653602182865D-05  .515362567711D+04
     .540000000000D+06  .145286321640D-06 -.174292046944D+01  .189989805222D-06
     .971628215667D+00  .257218750000D+03 -.137430167179D+01 -.768746307084D-08
     .832177520677D-10  .100000000000D+01  .228800000000D+04  .000000000000D+00
     .240000000000D+01  .000000000000D+00 -.111758708954D-07  .670000000000D+02
     .532800000000D+06  .400000000000D+01
25 23 11 18  6  0  0.0  .477876514196D-03  .159161572810D-11  .000000000000D+00
     .720000000000D+02  .370000000000D+02  .473626871317D-08  .319917576000D+00
     .181235373020D-05  .114533118904D-01  .866316258907D-05  .515364912796D+04
     .540000000000D+06 -.130385160446D-06 -.286658225046D+01  .124797224998D-06
     .952113827683D+00  .211500000000D+03  .105540462744D+01 -.812248119109D-08
    -.436446751188D-09  .100000000000D+01  .228800000000D+04  .000000000000D+00
     .240000000000D+01  .000000000000D+00  .558793544769D-08  .720000000000D+02
     .532800000000D+06  .400000000000D+01
13 23 11 18  6  0  0.0  .596485566348D-03  .409272615798D-11  .000000000000D+00
     .900000000000D+02 -.383437500000D+02  .411945730622D-08 -.262198894830D+01
    -.192224979401D-05  .768527225591D-02  .988692045212D-05  .515366474915D+04
     .540000000000D+06 -.242143869400D-07  .147675392983D+01 -.409781932831D-07
     .970117299245D+00  .192375000000D+03  .953916612353D+00 -.756995817629D-08
     .438946855327D-09  .100000000000D+01  .228800000000D+04  .000000000000D+00
     .240000000000D+01  .000000000000D+00 -.116415321827D-07  .900000000000D+02
     .532800000000D+06  .400000000000D+01
19 23 11 18  6  0  0.0  .400463119149D-03  .522959453519D-11  .000000000000D+00
     .560000000000D+02  .961562500000D+02  .424017662038D-08 -.182143602738D+00
     .505335628986D-05  .935300544370D-02  .665336847305D-05  .515366852951D+04
     .540000000000D+06  .167638063431D-07 -.169846931593D+01 -.145286321640D-06
     .970740168802D+00  .258093750000D+03  .244820142098D+01 -.807676500111D-08
     .757174396496D-10  .100000000000D+01  .228800000000D+04  .000000000000D+00
     .240000000000D+01  .000000000000D+00 -.153668224812D-07  .560000000000D+02
     .532800000000D+06  .400000000000D+01
28 23 11 18  6  0  0.0 -.487463548779D-04 -.864019966684D-11  .000000000000D+00
     .160000000000D+03 -.181250000000D+01  .462483550011D-08 -.218341645389D+00
     .819563865662D-07  .788175151683D-03  .708363950253D-05  .515377700424D+04
     .540000000000D+06 -.335276126862D-07  .235076721041D+01  .558793544769D-08
     .961278730032D+00  .242156250000D+03  .156313501750D+01 -.789782897628D-08
     .150006248362D-09  .100000000000D+01  .228800000000D+04  .000000000000D+00
     .240000000000D+01  .000000000000D+00 -.977888703346D-08  .160000000000D+03
     .532800000000D+06  .400000000000D+01
23 23 11 18  6  0  0.0  .100826844573D-03  .636646291241D-11  .000000000000D+00
     .145000000000D+03 -.118843750000D+03  .424553398639D-08  .947181451624D+00
    -.608898699284D-05  .387659703847D-02  .508315861225D-05  .515369733047D+04
     .540000000000D+06  .447034835815D-07  .261307071003D+00  .447034835815D-07
     .976699877619D+00  .288718750000D+03 -.303957030182D+01 -.807926510525D-08
    -.216080429189D-09  .100000000000D+01  .228800000000D+04  .000000000000D+00
     .240000000000D+01  .000000000000D+00 -.838190317154D-08  .401000000000D+03
     .532800000000D+06  .400000000000D+01
14 23 11 18  6  0  0.0  .246437266469D-03  .108002495836D-10  .000000000000D+00
     .430000000000D+02  .299062500000D+02  .478484216502D-08  .438173798029D+00
     .157766044140D-05  .368123350199D-02  .887177884579D-05  .515367863846D+04
     .540000000000D+06  .260770320892D-07 -.282367296287D+01  .670552253723D-07
     .947631161419D+00  .201843750000D+03 -.294935393156D+01 -.807890794752D-08
    -.360372153804D-09  .100000000000D+01  .228800000000D+04  .000000000000D+00
     .240000000000D+01  .000000000000D+00 -.791624188423D-08  .811000000000D+03
     .532800000000D+06  .400000000000D+01
